NORAD_CAT_ID,OBJECT_NAME,OBJECT_TYPE,EPOCH,MEAN_MOTION,ECCENTRICITY,INCLINATION,RA_OF_ASC_NODE,ARG_OF_PERICENTER,MEAN_ANOMALY,BSTAR,MEAN_MOTION_DOT,MEAN_MOTION_DDOT,TLE_LINE0,TLE_LINE1,TLE_LINE2,SEMIMAJOR_AXIS,PERIOD,APOGEE,PERIGEE,DECAYED
53932.0,STARLINK-4772,PAYLOAD,2023-06-18 11:54:37,15.08839548,0.0001118,53.217,86.8097,99.0341,261.0778,-7.1247e-06,-4.01e-06,0.0,0 STARLINK-4772,1 53932U 22119AY  23169.49626453 -.00000401  00000-0 -71247-5 0  9990,2 53932  53.2170  86.8097 0001118  99.0341 261.0778 15.08839548 41802,6917.882,95.438,540.52,538.973,0.0
53932.0,STARLINK-4772,PAYLOAD,2023-06-19 00:37:41,15.08851787,0.0001035,53.2167,84.4308,101.3082,258.8026,4.7481e-05,4.68e-06,0.0,0 STARLINK-4772,1 53932U 22119AY  23170.02617483  .00000468  00000-0  47481-4 0  9997,2 53932  53.2167  84.4308 0001035 101.3082 258.8026 15.08851787 41454,6917.844,95.437,540.425,538.993,0.0
53932.0,STARLINK-4772,PAYLOAD,2023-06-19 11:45:24,15.08843305,0.0001459,53.2169,82.3477,95.3369,264.7789,-1.4199e-05,-5.14e-06,0.0,0 STARLINK-4772,1 53932U 22119AY  23170.48986213 -.00000514  00000-0 -14199-4 0  9991,2 53932  53.2169  82.3477 0001459  95.3369 264.7789 15.08843305 41954,6917.87,95.437,540.745,538.726,0.0
53932.0,STARLINK-4772,PAYLOAD,2023-06-20 00:28:29,15.08832529,0.0001009,53.217,79.9704,104.3455,255.7649,0.00019393,2.799e-05,0.0,0 STARLINK-4772,1 53932U 22119AY  23171.01978692  .00002799  00000-0  19393-3 0  9998,2 53932  53.2170  79.9704 0001009 104.3455 255.7649 15.08832529 41602,6917.903,95.438,540.466,539.07,0.0
53932.0,STARLINK-4772,PAYLOAD,2023-06-20 03:39:15,15.0884067,0.0001164,53.2176,79.3731,113.3793,246.7322,0.0001804,2.584e-05,0.0,0 STARLINK-4772,1 53932U 22119AY  23171.15226306  .00002584  00000-0  18040-3 0  9991,2 53932  53.2176  79.3731 0001164 113.3793 246.7322 15.08840670 41625,6917.878,95.438,540.549,538.938,0.0
53932.0,STARLINK-4772,PAYLOAD,2023-06-20 21:08:30,15.08843276,0.0001149,53.2166,76.1029,108.887,251.2247,7.1212e-05,8.46e-06,0.0,0 STARLINK-4772,1 53932U 22119AY  23171.88090402  .00000846  00000-0  71212-4 0  9997,2 53932  53.2166  76.1029 0001149 108.8870 251.2247 15.08843276 42169,6917.87,95.437,540.53,538.941,0.0
53932.0,STARLINK-4772,PAYLOAD,2023-06-21 03:30:02,15.08849066,0.0001129,53.2167,74.9134,108.0435,252.068,9.5777e-05,1.237e-05,0.0,0 STARLINK-4772,1 53932U 22119AY  23172.14586033  .00001237  00000-0  95777-4 0  9994,2 53932  53.2167  74.9134 0001129 108.0435 252.0680 15.08849066 42208,6917.853,95.437,540.499,538.937,0.0
53932.0,STARLINK-4772,PAYLOAD,2023-06-22 01:45:26,15.08841278,0.0001158,53.2167,70.75,89.1375,270.975,9.281e-05,1.19e-05,0.0,0 STARLINK-4772,1 53932U 22119AY  23173.07322625  .00001190  00000-0  92810-4 0  9995,2 53932  53.2167  70.7500 0001158  89.1375 270.9750 15.08841278 41914,6917.876,95.437,540.543,538.94,0.0
53932.0,STARLINK-4772,PAYLOAD,2023-06-23 09:33:09,15.08838966,0.0001291,53.2165,64.8016,80.1512,279.9626,5.9646e-05,6.61e-06,0.0,0 STARLINK-4772,1 53932U 22119AY  23174.39802846  .00000661  00000-0  59646-4 0  9991,2 53932  53.2165  64.8016 0001291  80.1512 279.9626 15.08838966 42114,6917.884,95.438,540.642,538.855,0.0
53932.0,STARLINK-4772,PAYLOAD,2023-06-24 01:27:00,15.08848317,0.0001167,53.216,61.8311,98.7292,261.3833,0.00016258,2.301e-05,0.0,0 STARLINK-4772,1 53932U 22119AY  23175.06042365  .00002301  00000-0  16258-3 0  9992,2 53932  53.2160  61.8311 0001167  98.7292 261.3833 15.08848317 42213,6917.855,95.437,540.527,538.913,0.0
53932.0,STARLINK-4772,PAYLOAD,2023-06-24 17:20:52,15.08834011,0.0001305,53.2168,58.8589,90.2867,269.8274,-2.3777e-05,-6.66e-06,0.0,0 STARLINK-4772,1 53932U 22119AY  23175.72283180 -.00000666  00000-0 -23777-4 0  9996,2 53932  53.2168  58.8589 0001305  90.2867 269.8274 15.08834011 42312,6917.899,95.438,540.666,538.861,0.0
53932.0,STARLINK-4772,PAYLOAD,2023-06-25 01:17:47,15.0884492,0.0001251,53.2176,57.3704,85.3826,274.7309,7.0395e-05,8.33e-06,0.0,0 STARLINK-4772,1 53932U 22119AY  23176.05402772  .00000833  00000-0  70395-4 0  9995,2 53932  53.2176  57.3704 0001251  85.3826 274.7309 15.08844920 42363,6917.865,95.437,540.596,538.865,0.0
53932.0,STARLINK-4772,PAYLOAD,2023-06-25 15:36:16,15.08833649,0.0001104,53.2174,54.6938,85.4865,274.6253,5.1968e-05,5.39e-06,0.0,0 STARLINK-4772,1 53932U 22119AY  23176.65019548  .00000539  00000-0  51968-4 0  9994,2 53932  53.2174  54.6938 0001104  85.4865 274.6253 15.08833649 42454,6917.9,95.438,540.529,539.001,0.0
53932.0,STARLINK-4772,PAYLOAD,2023-06-26 01:08:35,15.08847388,0.0001187,53.217,52.9104,89.1022,271.0106,5.7952e-05,6.35e-06,0.0,0 STARLINK-4772,1 53932U 22119AY  23177.04762738  .00000635  00000-0  57952-4 0  9990,2 53932  53.2170  52.9104 0001187  89.1022 271.0106 15.08847388 42513,6917.858,95.437,540.544,538.902,0.0
53932.0,STARLINK-4772,PAYLOAD,2023-06-26 10:40:54,15.08843183,0.0001166,53.217,51.1262,89.0915,271.021,-2.1179e-05,-6.25e-06,0.0,0 STARLINK-4772,1 53932U 22119AY  23177.44507088 -.00000625  00000-0 -21179-4 0  9992,2 53932  53.2170  51.1262 0001166  89.0915 271.0210 15.08843183 42577,6917.871,95.437,540.542,538.929,0.0
53932.0,STARLINK-4772,PAYLOAD,2023-06-27 20:03:59,15.08841457,0.0001146,53.2183,44.8822,85.2985,274.8138,0.00011894,1.606e-05,0.0,0 STARLINK-4772,1 53932U 22119AY  23178.83611062  .00001606  00000-0  11894-3 0  9994,2 53932  53.2183  44.8822 0001146  85.2985 274.8138 15.08841457 42780,6917.876,95.437,540.534,538.948,0.0
53932.0,STARLINK-4772,PAYLOAD,2023-06-28 18:19:24,15.08833654,9.89e-05,53.2177,40.7185,94.0129,266.0976,4.2221e-05,3.84e-06,0.0,0 STARLINK-4772,1 53932U 22119AY  23179.76347756  .00000384  00000-0  42221-4 0  9994,2 53932  53.2177  40.7185 0000989  94.0129 266.0976 15.08833654 42921,6917.9,95.438,540.449,539.081,0.0
53932.0,STARLINK-4772,PAYLOAD,2023-06-28 23:05:33,15.08840136,9.75e-05,53.2173,39.8264,80.5682,279.542,3.9833e-05,3.46e-06,0.0,0 STARLINK-4772,1 53932U 22119AY  23179.96219439  .00000346  00000-0  39833-4 0  9995,2 53932  53.2173  39.8264 0000975  80.5682 279.5420 15.08840136 42952,6917.88,95.438,540.419,539.07,0.0
53932.0,STARLINK-4772,PAYLOAD,2023-07-01 17:51:45,15.0883867,9.71e-05,53.218,27.3375,85.2645,274.8458,-3.7505e-05,-8.85e-06,0.0,0 STARLINK-4772,1 53932U 22119AY  23182.74428188 -.00000885  00000-0 -37505-4 0  9992,2 53932  53.2180  27.3375 0000971  85.2645 274.8458 15.08838670 43378,6917.884,95.438,540.421,539.078,0.0
53932.0,STARLINK-4772,PAYLOAD,2023-07-01 22:37:55,15.08843106,9.78e-05,53.218,26.4455,85.4331,274.6773,1.4332e-06,-2.65e-06,0.0,0 STARLINK-4772,1 53932U 22119AY  23182.94299795 -.00000265  00000-0  14332-5 0  9999,2 53932  53.2180  26.4455 0000978  85.4331 274.6773 15.08843106 43400,6917.871,95.437,540.412,539.059,0.0
53932.0,STARLINK-4772,PAYLOAD,2023-07-03 06:25:37,15.08846205,0.0001079,53.2187,20.4949,82.7102,277.4013,-3.184e-05,-7.95e-06,0.0,0 STARLINK-4772,1 53932U 22119AY  23184.26779713 -.00000795  00000-0 -31840-4 0  9990,2 53932  53.2187  20.4949 0001079  82.7102 277.4013 15.08846205 43601,6917.861,95.437,540.473,538.98,0.0
53932.0,STARLINK-4772,PAYLOAD,2023-07-04 22:10:15,15.08847564,9.94e-05,53.2182,13.0626,90.8958,269.2148,3.432e-05,2.59e-06,0.0,0 STARLINK-4772,1 53932U 22119AY  23185.92379408  .00000259  00000-0  34320-4 0  9990,2 53932  53.2182  13.0626 0000994  90.8958 269.2148 15.08847564 43854,6917.857,95.437,540.41,539.035,0.0
53932.0,STARLINK-4772,PAYLOAD,2023-07-05 06:07:12,15.08838501,8.9e-05,53.2176,11.5745,98.7613,261.348,-3.0157e-05,-7.68e-06,0.0,0 STARLINK-4772,1 53932U 22119AY  23186.25500048 -.00000768  00000-0 -30157-4 0  9994,2 53932  53.2176  11.5745 0000890  98.7613 261.3480 15.08838501 43901,6917.885,95.438,540.366,539.134,0.0
53932.0,STARLINK-4772,PAYLOAD,2023-07-06 18:41:03,15.08847844,9.89e-05,53.2182,4.7375,82.9499,277.1606,2.3232e-05,8.2e-07,0.0,0 STARLINK-4772,1 53932U 22119AY  23187.77851742  .00000082  00000-0  23232-4 0  9995,2 53932  53.2182   4.7375 0000989  82.9499 277.1606 15.08847844 44138,6917.856,95.437,540.406,539.037,0.0
53932.0,STARLINK-4772,PAYLOAD,2023-07-07 04:13:23,15.08841521,9.82e-05,53.2179,2.9532,82.4994,277.611,1.0757e-05,-1.17e-06,0.0,0 STARLINK-4772,1 53932U 22119AY  23188.17596154 -.00000117  00000-0  10757-4 0  9991,2 53932  53.2179   2.9532 0000982  82.4994 277.6110 15.08841521 44194,6917.876,95.437,540.42,539.061,0.0
53932.0,STARLINK-4772,PAYLOAD,2023-07-08 18:22:38,15.08842449,9.18e-05,53.218,355.8169,82.4053,277.7043,3.5392e-05,2.76e-06,0.0,0 STARLINK-4772,1 53932U 22119AY  23189.76572237  .00000276  00000-0  35392-4 0  9990,2 53932  53.2180 355.8169 0000918  82.4053 277.7043 15.08842449 44430,6917.873,95.437,540.373,539.103,0.0
53932.0,STARLINK-4772,PAYLOAD,2023-07-10 03:45:44,15.08841855,0.0001055,53.2184,349.5714,88.7111,271.4002,-2.4635e-05,-6.8e-06,0.0,0 STARLINK-4772,1 53932U 22119AY  23191.15676284 -.00000680  00000-0 -24635-4 0  9992,2 53932  53.2184 349.5714 0001055  88.7111 271.4002 15.08841855 44646,6917.875,95.437,540.47,539.01,0.0
53932.0,STARLINK-4772,PAYLOAD,2023-07-11 09:58:04,15.08836896,0.0001132,53.2181,343.9206,87.5414,272.5708,1.1761e-05,-1.01e-06,0.0,0 STARLINK-4772,1 53932U 22119AY  23192.41532714 -.00000101  00000-0  11761-4 0  9994,2 53932  53.2181 343.9206 0001132  87.5414 272.5708 15.08836896 44831,6917.89,95.438,540.538,538.972,0.0
53932.0,STARLINK-4772,PAYLOAD,2023-07-11 16:19:36,15.0884172,0.0001094,53.2176,342.7319,87.7438,272.3679,5.2507e-05,5.48e-06,0.0,0 STARLINK-4772,1 53932U 22119AY  23192.68028292  .00000548  00000-0  52507-4 0  9991,2 53932  53.2176 342.7319 0001094  87.7438 272.3679 15.08841720 44873,6917.875,95.437,540.497,538.983,0.0
53932.0,STARLINK-4772,PAYLOAD,2023-07-12 09:48:51,15.08836881,0.0001074,53.2175,339.461,88.9435,271.1681,4.508e-05,4.3e-06,0.0,0 STARLINK-4772,1 53932U 22119AY  23193.40892668  .00000430  00000-0  45080-4 0  9996,2 53932  53.2175 339.4610 0001074  88.9435 271.1681 15.08836881 44981,6917.89,95.438,540.498,539.012,0.0
